NORAD_CAT_ID,OBJECT_NAME,OBJECT_TYPE,EPOCH,MEAN_MOTION,ECCENTRICITY,INCLINATION,RA_OF_ASC_NODE,ARG_OF_PERICENTER,MEAN_ANOMALY,BSTAR,MEAN_MOTION_DOT,MEAN_MOTION_DDOT,TLE_LINE0,TLE_LINE1,TLE_LINE2,SEMIMAJOR_AXIS,PERIOD,APOGEE,PERIGEE,DECAYED
55675.0,STARLINK-5232,PAYLOAD,2023-12-16 12:20:18,14.98326788,0.0003631,70.0003,57.0977,276.9457,83.1289,3.9046e-05,3.73e-06,0.0,0 STARLINK-5232,1 55675U 23021AZ  23350.51410096  .00000373  00000-0  39046-4 0  9994,2 55675  70.0003  57.0977 0003631 276.9457  83.1289 14.98326788 47039,6950.203,96.107,574.591,569.544,0.0
55675.0,STARLINK-5232,PAYLOAD,2023-12-16 13:56:26,14.98327041,0.0003635,70.0003,56.9294,277.0658,83.0088,4.1494e-05,4.02e-06,0.0,0 STARLINK-5232,1 55675U 23021AZ  23350.58086100  .00000402  00000-0  41494-4 0  9999,2 55675  70.0003  56.9294 0003635 277.0658  83.0088 14.98327041 47341,6950.202,96.107,574.593,569.541,0.0
55675.0,STARLINK-5232,PAYLOAD,2023-12-17 12:22:19,14.98330254,0.0003635,70.0003,54.5727,276.1278,83.9466,6.8871e-05,7.29e-06,0.0,0 STARLINK-5232,1 55675U 23021AZ  23351.51549911  .00000729  00000-0  68871-4 0  9997,2 55675  70.0003  54.5727 0003635 276.1278  83.9466 14.98330254 47185,6950.192,96.107,574.584,569.531,0.0
55675.0,STARLINK-5232,PAYLOAD,2023-12-17 13:58:27,14.98331586,0.0003623,70.0004,54.4047,276.0224,84.0522,8.2238e-05,8.88e-06,0.0,0 STARLINK-5232,1 55675U 23021AZ  23351.58225796  .00000888  00000-0  82238-4 0  9995,2 55675  70.0004  54.4047 0003623 276.0224  84.0522 14.98331586 47495,6950.188,96.107,574.571,569.535,0.0
55675.0,STARLINK-5232,PAYLOAD,2023-12-18 10:48:11,14.98337542,0.0003648,70.0004,52.2164,274.8775,85.1967,0.00011412,1.269e-05,0.0,0 STARLINK-5232,1 55675U 23021AZ  23352.45013120  .00001269  00000-0  11412-3 0  9997,2 55675  70.0004  52.2164 0003648 274.8775  85.1967 14.98337542 47320,6950.17,96.107,574.57,569.499,0.0
55675.0,STARLINK-5232,PAYLOAD,2023-12-18 14:00:27,14.98340113,0.00036,70.0005,51.88,274.0106,86.0641,0.0001397,1.575e-05,0.0,0 STARLINK-5232,1 55675U 23021AZ  23352.58364803  .00001575  00000-0  13970-3 0  9999,2 55675  70.0005  51.8800 0003600 274.0106  86.0641 14.98340113 47643,6950.162,96.106,574.529,569.525,0.0
55675.0,STARLINK-5232,PAYLOAD,2023-12-19 04:25:40,14.98328627,0.0002786,70.002,50.367,277.9721,82.1121,-1.9566e-05,-3.26e-06,0.0,0 STARLINK-5232,1 55675U 23021AZ  23353.18450112 -.00000326  00000-0 -19566-4 0  9998,2 55675  70.0020  50.3670 0002786 277.9721  82.1121 14.98328627 47431,6950.197,96.107,573.998,570.126,0.0
55675.0,STARLINK-5232,PAYLOAD,2023-12-19 14:02:29,14.98326607,0.000355,70.0003,49.3555,272.475,87.6002,-5.4701e-05,-7.46e-06,0.0,0 STARLINK-5232,1 55675U 23021AZ  23353.58506262 -.00000746  00000-0 -54701-4 0  9996,2 55675  70.0003  49.3555 0003550 272.4750  87.6002 14.98326607 47797,6950.203,96.107,574.536,569.601,0.0
55675.0,STARLINK-5232,PAYLOAD,2023-12-20 04:27:41,14.98331664,0.0003639,69.9999,47.8402,273.5637,86.5106,-9.2784e-05,-1.2e-05,0.0,0 STARLINK-5232,1 55675U 23021AZ  23354.18590134 -.00001200  00000-0 -92784-4 0  9993,2 55675  69.9999  47.8402 0003639 273.5637  86.5106 14.98331664 47585,6950.188,96.107,574.582,569.524,0.0
55675.0,STARLINK-5232,PAYLOAD,2023-12-20 14:04:29,14.98334789,0.0003397,70.0007,46.8311,270.939,89.138,-2.3239e-05,-3.7e-06,0.0,0 STARLINK-5232,1 55675U 23021AZ  23354.58645683 -.00000370  00000-0 -23239-4 0  9993,2 55675  70.0007  46.8311 0003397 270.9390  89.1380 14.98334789 47948,6950.178,96.107,574.404,569.682,0.0
55675.0,STARLINK-5232,PAYLOAD,2023-12-21 04:29:42,14.9834122,0.0003119,70.0006,45.3144,271.9719,88.1083,-4.1772e-05,-5.92e-06,0.0,0 STARLINK-5232,1 55675U 23021AZ  23355.18729545 -.00000592  00000-0 -41772-4 0  9998,2 55675  70.0006  45.3144 0003119 271.9719  88.1083 14.98341220 47737,6950.158,96.106,574.191,569.855,0.0
55675.0,STARLINK-5232,PAYLOAD,2023-12-21 12:30:22,14.98342094,0.0003013,70.0006,44.4732,265.7287,94.3528,-2.889e-06,-1.27e-06,0.0,0 STARLINK-5232,1 55675U 23021AZ  23355.52109163 -.00000127  00000-0 -28890-5 0  9995,2 55675  70.0006  44.4732 0003013 265.7287  94.3528 14.98342094 48086,6950.155,96.106,574.115,569.926,0.0
55675.0,STARLINK-5232,PAYLOAD,2023-12-22 04:31:43,14.9832814,0.0003009,70.0019,42.7921,261.93,98.1518,5.2049e-05,5.28e-06,0.0,0 STARLINK-5232,1 55675U 23021AZ  23356.18869959  .00000528  00000-0  52049-4 0  9999,2 55675  70.0019  42.7921 0003009 261.9300  98.1518 14.98328140 47884,6950.199,96.107,574.155,569.972,0.0
55675.0,STARLINK-5232,PAYLOAD,2023-12-22 12:32:24,14.98327098,0.0003052,70.0008,41.9487,262.6756,97.4056,1.1701e-05,4.7e-07,0.0,0 STARLINK-5232,1 55675U 23021AZ  23356.52250158  .00000047  00000-0  11701-4 0  9998,2 55675  70.0008  41.9487 0003052 262.6756  97.4056 14.98327098 48231,6950.202,96.107,574.188,569.946,0.0
55675.0,STARLINK-5232,PAYLOAD,2023-12-23 10:58:16,14.98334537,0.0003034,70.0008,39.5919,259.1405,100.9412,1.2906e-05,6.1e-07,0.0,0 STARLINK-5232,1 55675U 23021AZ  23357.45713515  .00000061  00000-0  12906-4 0  9996,2 55675  70.0008  39.5919 0003034 259.1405 100.9412 14.98334537 48070,6950.179,96.107,574.153,569.935,0.0
55675.0,STARLINK-5232,PAYLOAD,2023-12-23 12:34:24,14.98336817,0.0003289,70.0,39.4225,269.0461,91.0322,2.9506e-05,2.59e-06,0.0,0 STARLINK-5232,1 55675U 23021AZ  23357.52389357  .00000259  00000-0  29506-4 0  9990,2 55675  70.0000  39.4225 0003289 269.0461  91.0322 14.98336817 48382,6950.172,96.107,574.323,569.751,0.0
55675.0,STARLINK-5232,PAYLOAD,2023-12-24 02:59:37,14.9832747,0.0003176,70.0002,37.9075,267.8552,92.2243,5.9017e-05,6.11e-06,0.0,0 STARLINK-5232,1 55675U 23021AZ  23358.12473833  .00000611  00000-0  59017-4 0  9992,2 55675  70.0002  37.9075 0003176 267.8552  92.2243 14.98327470 48179,6950.201,96.107,574.273,569.858,0.0
55675.0,STARLINK-5232,PAYLOAD,2023-12-24 12:36:25,14.98329404,0.0003102,70.0004,36.8968,266.0163,94.0642,0.00012505,1.399e-05,0.0,0 STARLINK-5232,1 55675U 23021AZ  23358.52529569  .00001399  00000-0  12505-3 0  9998,2 55675  70.0004  36.8968 0003102 266.0163  94.0642 14.98329404 48530,6950.195,96.107,574.216,569.904,0.0
55675.0,STARLINK-5232,PAYLOAD,2023-12-25 03:01:38,14.98331795,0.0003018,70.0007,35.3832,257.9009,102.1812,3.2018e-05,2.89e-06,0.0,0 STARLINK-5232,1 55675U 23021AZ  23359.12613595  .00000289  00000-0  32018-4 0  9997,2 55675  70.0007  35.3832 0003018 257.9009 102.1812 14.98331795 48324,6950.187,96.107,574.15,569.955,0.0
55675.0,STARLINK-5232,PAYLOAD,2023-12-25 12:38:26,14.98333776,0.0002907,70.0008,34.3733,257.3234,102.76,4.9008e-05,4.92e-06,0.0,0 STARLINK-5232,1 55675U 23021AZ  23359.52669301  .00000492  00000-0  49008-4 0  9990,2 55675  70.0008  34.3733 0002907 257.3234 102.7600 14.98333776 48685,6950.181,96.107,574.067,570.026,0.0
55675.0,STARLINK-5232,PAYLOAD,2023-12-26 03:03:39,14.98329346,0.0002736,70.0011,32.8575,260.3572,99.7278,1.8814e-05,1.32e-06,0.0,0 STARLINK-5232,1 55675U 23021AZ  23360.12753730  .00000132  00000-0  18814-4 0  9990,2 55675  70.0011  32.8575 0002736 260.3572  99.7278 14.98329346 48476,6950.195,96.107,573.961,570.158,0.0
55675.0,STARLINK-5232,PAYLOAD,2023-12-26 12:40:27,14.98329469,0.0002709,70.0009,31.8478,256.6833,103.4024,-1.6067e-05,-2.85e-06,0.0,0 STARLINK-5232,1 55675U 23021AZ  23360.52809837 -.00000285  00000-0 -16067-4 0  9993,2 55675  70.0009  31.8478 0002709 256.6833 103.4024 14.98329469 48830,6950.195,96.107,573.942,570.177,0.0
55675.0,STARLINK-5232,PAYLOAD,2023-12-27 03:05:40,14.98330981,0.0002746,70.0007,30.3327,261.0877,98.9972,3.3004e-05,3.01e-06,0.0,0 STARLINK-5232,1 55675U 23021AZ  23361.12893611  .00000301  00000-0  33004-4 0  9990,2 55675  70.0007  30.3327 0002746 261.0877  98.9972 14.98330981 48622,6950.19,96.107,573.963,570.146,0.0
55675.0,STARLINK-5232,PAYLOAD,2023-12-27 11:06:20,14.98331065,0.0002765,70.0005,29.4906,263.6792,96.4052,3.7879e-05,3.59e-06,0.0,0 STARLINK-5232,1 55675U 23021AZ  23361.46273648  .00000359  00000-0  37879-4 0  9996,2 55675  70.0005  29.4906 0002765 263.6792  96.4052 14.98331065 48971,6950.19,96.107,573.976,570.133,0.0
55675.0,STARLINK-5232,PAYLOAD,2023-12-28 03:07:41,14.98328264,0.0002873,70.0005,27.8078,264.4814,95.6017,6.6642e-05,7.02e-06,0.0,0 STARLINK-5232,1 55675U 23021AZ  23362.13033674  .00000702  00000-0  66642-4 0  9996,2 55675  70.0005  27.8078 0002873 264.4814  95.6017 14.98328264 48774,6950.198,96.107,574.06,570.066,0.0
55675.0,STARLINK-5232,PAYLOAD,2023-12-28 11:08:21,14.98329161,0.0003095,70.0003,26.966,264.7416,95.339,4.1224e-05,3.99e-06,0.0,0 STARLINK-5232,1 55675U 23021AZ  23362.46413697  .00000399  00000-0  41224-4 0  9990,2 55675  70.0003  26.9660 0003095 264.7416  95.3390 14.98329161 49125,6950.195,96.107,574.212,569.909,0.0
55675.0,STARLINK-5232,PAYLOAD,2023-12-28 19:09:01,14.98331675,0.0002886,70.0005,26.1242,260.3641,99.7192,4.6096e-05,4.57e-06,0.0,0 STARLINK-5232,1 55675U 23021AZ  23362.79793505  .00000457  00000-0  46096-4 0  9992,2 55675  70.0005  26.1242 0002886 260.3641  99.7192 14.98331675 49170,6950.188,96.107,574.059,570.047,0.0
55675.0,STARLINK-5232,PAYLOAD,2023-12-29 03:09:42,14.98326889,0.0003124,70.0004,25.2834,270.0615,90.0186,-1.3501e-05,-2.54e-06,0.0,0 STARLINK-5232,1 55675U 23021AZ  23363.13174024 -.00000254  00000-0 -13501-4 0  9992,2 55675  70.0004  25.2834 0003124 270.0615  90.0186 14.98326889 48921,6950.203,96.107,574.239,569.896,0.0
55675.0,STARLINK-5232,PAYLOAD,2023-12-29 11:10:22,14.98330524,0.0002955,70.0002,24.4415,267.7209,92.3612,2.0005e-05,1.46e-06,0.0,0 STARLINK-5232,1 55675U 23021AZ  23363.46553734  .00000146  00000-0  20005-4 0  9992,2 55675  70.0002  24.4415 0002955 267.7209  92.3612 14.98330524 49277,6950.191,96.107,574.11,570.002,0.0
55675.0,STARLINK-5232,PAYLOAD,2023-12-30 03:11:42,14.98334195,0.0003061,69.9997,22.7575,269.0316,91.0493,0.00010855,1.203e-05,0.0,0 STARLINK-5232,1 55675U 23021AZ  23364.13313094  .00001203  00000-0  10855-3 0  9996,2 55675  69.9997  22.7575 0003061 269.0316  91.0493 14.98334195 49077,6950.18,96.107,574.172,569.917,0.0
